SL-4 R/B                
1 39679U 14021B   25364.56232552  .00016086  00000+0  37677-3 0  9995
2 39679  51.6083 313.9519 0100355 210.6128 148.8975 15.37114740645633
ALOS-2                  
1 39766U 14029A   25365.07153666  .00004646  00000+0  62878-3 0  9995
2 39766  97.9218  99.6564 0001336 107.5356 252.6001 14.79457557626721
YAOGAN-29               
1 41038U 15069A   25364.97088203  .00001134  00000+0  14657-3 0  9998
2 41038  98.0214  28.2001 0001345 152.7511 207.3773 14.82905637545693
ASTRO-H (HITOMI)        
1 41337U 16012A   25364.54491750  .00005837  00000+0  34951-3 0  9990
2 41337  30.9999  82.5743 0009605 357.4048   2.6539 15.09483600541774
HXMT (HUIYAN)           
1 42758U 17034A   25364.97135147  .00011192  00000+0  56837-3 0  9993
2 42758  43.0155  38.4419 0031899 162.5319 197.6633 15.16484809472107
CZ-2C R/B               
1 43521U 18054D   25364.47086471  .00166066  00000+0  90938-3 0  9996
2 43521  35.1333  60.3140 0013438 319.5558  40.4177 15.78218532417854
SAOCOM 1A               
1 43641U 18076A   25364.76475514  .00000403  00000+0  57231-4 0  9997
2 43641  97.8849 188.9241 0001423  82.0562 278.0813 14.82154587391154
H-2A R/B                
1 43682U 18084L   25364.65255430  .00030245  00000+0  79766-3 0  9995
2 43682  98.8767 202.4539 0026181 263.5082  96.3177 15.38103922395159
SAOCOM 1B               
1 46265U 20059A   25364.93101887  .00001038  00000+0  13685-3 0  9993
2 46265  97.8844 188.1875 0001410  83.7755 276.3619 14.82159972288565
CSS (TIANHE)            
1 48274U 21035A   25364.77333339  .00024941  00000+0  30324-3 0  9998
2 48274  41.4669 267.1660 0009715 184.6419 175.4330 15.59924070266841
COSMOS 2550             
1 48865U 21056A   25364.98417108 -.00000176  00000+0  47448-6 0  9990
2 48865  67.1417 248.7510 0008364 270.0048  90.0148 15.33835013252922
CZ-2C R/B               
1 52794U 22058K   25364.28980737  .00045940  00000+0  78995-3 0  9990
2 52794  50.1913 313.9891 0044129 270.5241  89.0671 15.49507691199358
